SITRO-AIS 29            
1 59052U 24039B   24289.14316329  .00061522  00000+0  16104-2 0  9992
2 59052  97.4024 250.9856 0017181 135.7604 224.5018 15.38355727 34968
SITRO-AIS 30            
1 59053U 24039C   24289.15410192  .00059692  00000+0  15777-2 0  9997
2 59053  97.4026 250.9653 0017364 136.9882 223.2724 15.38062490 34951
SITRO-AIS 31            
1 59054U 24039D   24289.19768146  .00061844  00000+0  16195-2 0  9994
2 59054  97.4025 251.0603 0017063 136.6916 223.5673 15.38343499 34989
SITRO-AIS 33            
1 59055U 24039E   24289.17999168  .00061583  00000+0  16073-2 0  9998
2 59055  97.4029 251.0943 0016737 136.9331 223.3227 15.38452747 34971
SITRO-AIS 35            
1 59056U 24039F   24289.17505699  .00060079  00000+0  15695-2 0  9999
2 59056  97.4028 251.0961 0016644 136.9485 223.3065 15.38432718 34974
SITRO-AIS 32            
1 59057U 24039G   24289.19327534  .00057297  00000+0  15084-2 0  9992
2 59057  97.4031 251.0760 0016842 137.3660 222.8896 15.38205406 34974
SITRO-AIS 34            
1 59058U 24039H   24289.18008875  .00061472  00000+0  16032-2 0  9990
2 59058  97.4029 251.0957 0016607 136.9345 223.3203 15.38478646 34970
SITRO-AIS 36            
1 59059U 24039J   24289.16366693  .00061023  00000+0  15861-2 0  9995
2 59059  97.4029 251.1122 0016592 137.1942 223.0598 15.38585540 34971
SITRO-AIS 49            
1 59060U 24039K   24289.17112986  .00061780  00000+0  16177-2 0  9993
2 59060  97.4032 251.1031 0016593 136.4013 223.8546 15.38354268 34970
SITRO-AIS 50            
1 59061U 24039L   24289.14404434  .00061775  00000+0  15945-2 0  9999
2 59061  97.4025 251.1365 0016509 136.2267 224.0290 15.38797407 34974
SITRO-AIS 51            
1 59062U 24039M   24289.20827892  .00068966  00000+0  17775-2 0  9996
2 59062  97.4025 251.2022 0016501 136.5660 223.6889 15.38810390 34985
SITRO-AIS 52            
1 59063U 24039N   24289.19344297  .00060708  00000+0  15616-2 0  9996
2 59063  97.4028 251.2250 0016226 136.1291 224.1246 15.38912076 34989
SITRO-AIS 25            
1 59066U 24039R   24289.18208556  .00012029  00000+0  11036-2 0  9990
2 59066  95.3922 178.6949 0163425 290.1410  68.2294 14.85254064 33905
SITRO-AIS 26            
1 59067U 24039S   24289.18611045  .00012195  00000+0  11215-2 0  9995
2 59067  95.3924 178.6902 0163531 290.1740  68.1957 14.85149027 33908
SITRO-AIS 27            
1 59068U 24039T   24289.16116887  .00011815  00000+0  10812-2 0  9998
2 59068  95.3923 178.7190 0163035 289.9892  68.3836 14.85395843 33908
SITRO-AIS 28            
1 59071U 24039U   24289.15496340  .00011846  00000+0  10831-2 0  9991
2 59071  95.3924 178.7268 0162846 289.9527  68.4217 14.85447426 33902
GRBBETA                 
1 60237U 24128C   24289.21384618  .00008891  00000+0  74943-3 0  9998
2 60237  61.9941 184.7916 0020967 351.8268   8.2476 14.98622680 14573
OOV-CUBE (TUBSAT-30)    
1 60240U 24128F   24288.72792952  .00005582  00000+0  49052-3 0  9998
2 60240  61.9978 186.9064 0019116 345.0617  14.9904 14.97555746 14502
ROBUSTA-3A (MEDITERRAN*)
1 60243U 24128J   24289.13391472  .00013875  00000+0  11689-2 0  9997
2 60243  61.9914 185.4687 0019332 335.5547  24.4624 14.98327538 14564
BEIJING 1               
1 28890U 05043A   24289.57417547  .00001205  00000+0  24601-3 0  9997
2 28890  98.2154  51.6743 0015429  33.6161 326.6016 14.62660650 11490
HUANJING 1A (HJ-1A)     
1 33320U 08041A   24289.20690766  .00004191  00000+0  54608-3 0  9995
2 33320  97.6351 290.3853 0019449 344.5844  15.4774 14.80967237868112
HUANJING 1B (HJ-1B)     
1 33321U 08041B   24289.19610422  .00003123  00000+0  40477-3 0  9998
2 33321  97.6282 294.8623 0038699  26.0267 334.2881 14.80974624868130
YAOGAN-4                
1 33446U 08061A   24289.15087479  .00004395  00000+0  57768-3 0  9997
2 33446  97.8839 218.8292 0013083 254.9719 105.0045 14.80671771855308
DEIMOS-1                
1 35681U 09041A   24289.52508238  .00001999  00000+0  31283-3 0  9992
2 35681  97.6848 105.0741 0001956  42.4834 317.6526 14.73779891817036
UK-DMC 2                
1 35683U 09041C   24289.45774913  .00002667  00000+0  41304-3 0  9999
2 35683  97.7988  72.3223 0001427  89.4511 270.6861 14.73997999816727
DMC3-FM1                
1 40715U 15032A   24289.19218517  .00002511  00000+0  30625-3 0  9994
2 40715  97.7290 164.4992 0004150 258.2066 101.8684 14.84209203499370
DMC3-FM2                
1 40716U 15032B   24289.14702563  .00002538  00000+0  30944-3 0  9992
2 40716  97.7344 165.6055 0005977 265.0349  95.0184 14.84208346499367
DMC3-FM3                
1 40717U 15032C   24289.17903165  .00002557  00000+0  31233-3 0  9990
2 40717  97.7394 166.9688 0007434 261.5359  98.5013 14.84114640499374
NOAA 15                 
1 25338U 98030A   24289.16456916  .00000603  00000+0  26695-3 0  9993
2 25338  98.5609 313.7538 0009800 340.2182  19.8618 14.26751443374540
DMSP 5D-3 F16 (USA 172) 
1 28054U 03048A   24289.52429432  .00000493  00000+0  28271-3 0  9998
2 28054  99.0233 297.1444 0008350  75.4328  77.4805 14.14157704 83289
NOAA 18                 
1 28654U 05018A   24289.49092183  .00000598  00000+0  34152-3 0  9999
2 28654  98.8659   5.4154 0015174  83.5635 276.7264 14.13374127   253
METEOSAT-9 (MSG-2)      
1 28912U 05049B   24288.48825580  .00000130  00000+0  00000+0 0  9996
2 28912   7.9580  59.8252 0002086 169.1520  16.0749  1.00267425 68956
EWS-G1 (GOES 13)        
1 29155U 06018A   24288.81090956  .00000001  00000+0  00000+0 0  9998
2 29155   2.9339  83.8078 0062269 256.1297  12.5766  0.98829721 37217
DMSP 5D-3 F17 (USA 191) 
1 29522U 06050A   24289.50518132  .00000544  00000+0  30574-3 0  9995
2 29522  98.7452 297.6137 0010069   3.5166 356.6076 14.14617385926201
FENGYUN 3A              
1 32958U 08026A   24288.60794860  .00000574  00000+0  29406-3 0  9996
2 32958  98.6164 232.3397 0009976  87.8337 272.3982 14.19232509848783
NOAA 19                 
1 33591U 09005A   24289.17641486  .00000585  00000+0  33698-3 0  9996
2 33591  99.0334 346.1727 0013000 316.7728  43.2422 14.13157779808579
GOES 14                 
1 35491U 09033A   24289.10113720 -.00000068  00000+0  00000+0 0  9990
2 35491   0.0954  92.2739 0003808  91.2564 128.4787  1.00270083 56032
DMSP 5D-3 F18 (USA 210) 
1 35951U 09057A   24289.18498014  .00000759  00000+0  41991-3 0  9991
2 35951  98.8298 263.0154 0010841 179.3711 180.7478 14.14327022773326
EWS-G2 (GOES 15)        
1 36411U 10008A   24288.86646652  .00000036  00000+0  00000+0 0  9998
2 36411   0.2924 274.1791 0006596 314.3416 168.6134  1.00272294 53524
COMS 1                  
1 36744U 10032A   24288.93363183 -.00000343  00000+0  00000+0 0  9999
2 36744   3.2552  83.1307 0000947 125.1115 280.0071  1.00271154 52535
FENGYUN 3B              
1 37214U 10059A   24289.24413521  .00000347  00000+0  20411-3 0  9993
2 37214  99.0461 318.9700 0023132 112.6226 316.5477 14.14593495721229
SUOMI NPP               
1 37849U 11061A   24289.50026077  .00000334  00000+0  17909-3 0  9990
2 37849  98.7305 225.7062 0000263 110.7884 249.3320 14.19531805671935
FENGYUN 2F              
1 38049U 12002A   24288.96273675 -.00000055  00000+0  00000+0 0  9997
2 38049   6.0341  72.7988 0002510 140.4638  72.0385  0.99134919 46746
METEOSAT-10 (MSG-3)     
1 38552U 12035B   24288.76523052 -.00000006  00000+0  00000+0 0  9993
2 38552   3.2347  61.5846 0000590 212.2784  25.4889  1.00268459 44733
METOP-B                 
1 38771U 12049A   24289.53808193  .00000425  00000+0  21377-3 0  9997
2 38771  98.6140 343.9792 0001464  98.2096 261.9247 14.21546387626648
INSAT-3D                
1 39216U 13038B   24288.93389247 -.00000341  00000+0  00000+0 0  9992
2 39216   0.3395  91.3187 0001356 122.6135 275.7653  1.00268293 41187
FENGYUN 3C              
1 39260U 13052A   24289.19904760  .00000401  00000+0  22284-3 0  9997
2 39260  98.4375 282.4946 0010818 347.1751  12.9147 14.16312026572317
METEOR-M 2              
1 40069U 14037A   24289.22317132  .00000506  00000+0  25213-3 0  9996
2 40069  98.4477 278.1628 0006176  21.3834 338.7600 14.21094030532679
HIMAWARI-8              
1 40267U 14060A   24288.72161656 -.00000278  00000+0  00000+0 0  9994
2 40267   0.0222 243.1783 0000957   8.4371 172.6215  1.00268483 36633
FENGYUN 2G              
1 40367U 14090A   24288.99940028 -.00000296  00000+0  00000+0 0  9995
2 40367   4.0928  80.0951 0003167 167.5161 235.4638  1.00261073 35922
METEOSAT-11 (MSG-4)     
1 40732U 15034A   24289.12459491  .00000062  00000+0  00000+0 0  9995
2 40732   1.6747  70.9669 0001002 152.3703 215.1540  1.00264627 33893
ELEKTRO-L 2             
1 41105U 15074A   24289.11981648 -.00000113  00000+0  00000+0 0  9995
2 41105   5.1434  77.9861 0003390 167.9354 166.9173  1.00270658 32397
INSAT-3DR               
1 41752U 16054A   24289.43104903 -.00000079  00000+0  00000+0 0  9999
2 41752   0.1306  91.4704 0013080 172.1100 350.0587  1.00271189 29682
HIMAWARI-9              
1 41836U 16064A   24288.74979927 -.00000277  00000+0  00000+0 0  9992
2 41836   0.0383 160.2096 0000793  49.7740 224.5193  1.00272142 29086
GOES 16                 
1 41866U 16071A   24288.17817965 -.00000250  00000+0  00000+0 0  9994
2 41866   0.0529 288.9784 0000543 338.3828 104.8196  1.00272643 28976
FENGYUN 4A              
1 41882U 16077A   24288.90465973 -.00000198  00000+0  00000+0 0  9998
2 41882   0.7576  85.7581 0007839 342.3229   8.0482  1.00263307 28808
CYGFM05                 
1 41884U 16078A   24288.33031100  .00017131  00000+0  55541-3 0  9997
2 41884  34.9620 264.8550 0012915 213.1766 146.8142 15.31034200434326
CYGFM04                 
1 41885U 16078B   24289.28691652  .00021533  00000+0  67471-3 0  9993
2 41885  34.9381 241.5346 0011501 237.4182 122.5425 15.32104976434736
